start=new Date('2022-09-16T00:00:00.000Z').valueOf();
sats=[{"CENTER_NAME":"EARTH","LAUNCH_DATE":"2022-09-05","MEAN_MOTION":"15.73275591","SITE":"AFETR","NORAD_CAT_ID":"53713","FILE":"3575050","ELEMENT_SET_NO":"999","OBJECT_ID":"2022-107P","OBJECT_NAME":"STARLINK-4698","BSTAR":"-0.00101240000000","ECCENTRICITY":"0.00011050","MEAN_MOTION_DDOT":"0.0000000000000","REV_AT_EPOCH":"130","PERIOD":"91.529","COUNTRY_CODE":"US","EPHEMERIS_TYPE":"0","TIME_SYSTEM":"UTC","PERIAPSIS":"348.801","ARG_OF_PERICENTER":"113.0598","TLE_LINE1":"1 53713U 22107P   22258.91667824 -.00140802  00000-0 -10124-2 0  9990","APOAPSIS":"350.288","EPOCH":"2022-09-15T22:00:00.999936","REF_FRAME":"TEME","SEMIMAJOR_AXIS":"6727.680","TLE_LINE2":"2 53713  53.2146 219.5601 0001105 113.0598  64.6747 15.73275591  1303","GP_ID":"212684131","DECAY_DATE":null,"INCLINATION":"53.2146","OBJECT_TYPE":"PAYLOAD","MEAN_ANOMALY":"64.6747","RCS_SIZE":null,"MEAN_MOTION_DOT":"-0.00140802","CLASSIFICATION_TYPE":"U","RA_OF_ASC_NODE":"219.5601","MEAN_ELEMENT_THEORY":"SGP4"},{"PERIAPSIS":"348.759","ARG_OF_PERICENTER":"99.8713","TLE_LINE1":"1 53714U 22107Q   22259.00001157 -.00034877  00000-0 -24464-3 0  9990","APOAPSIS":"350.505","EPOCH":"2022-09-16T00:00:00.999648","REF_FRAME":"TEME","SEMIMAJOR_AXIS":"6727.767","TLE_LINE2":"2 53714  53.2147 219.1469 0001298  99.8713 190.6502 15.73244927  1832","GP_ID":"212657362","DECAY_DATE":null,"INCLINATION":"53.2147","OBJECT_TYPE":"PAYLOAD","MEAN_ANOMALY":"190.6502","RCS_SIZE":null,"MEAN_MOTION_DOT":"-0.00034877","CLASSIFICATION_TYPE":"U","RA_OF_ASC_NODE":"219.1469","MEAN_ELEMENT_THEORY":"SGP4","LAUNCH_DATE":"2022-09-05","MEAN_MOTION":"15.73244927","CENTER_NAME":"EARTH","SITE":"AFETR","NORAD_CAT_ID":"53714","FILE":"3574973","ELEMENT_SET_NO":"999","OBJECT_ID":"2022-107Q","OBJECT_NAME":"STARLINK-4688","BSTAR":"-0.00024464000000","ECCENTRICITY":"0.00012980","MEAN_MOTION_DDOT":"0.0000000000000","REV_AT_EPOCH":"183","PERIOD":"91.531","COUNTRY_CODE":"US","EPHEMERIS_TYPE":"0","TIME_SYSTEM":"UTC"},{"TIME_SYSTEM":"UTC","COUNTRY_CODE":"US","EPHEMERIS_TYPE":"0","ECCENTRICITY":"0.00008030","REV_AT_EPOCH":"182","PERIOD":"91.535","MEAN_MOTION_DDOT":"0.0000000000000","BSTAR":"0.00023633000000","OBJECT_NAME":"STARLINK-4686","OBJECT_ID":"2022-107R","FILE":"3574973","NORAD_CAT_ID":"53715","ELEMENT_SET_NO":"999","SITE":"AFETR","CENTER_NAME":"EARTH","LAUNCH_DATE":"2022-09-05","MEAN_MOTION":"15.73168334","MEAN_ELEMENT_THEORY":"SGP4","MEAN_ANOMALY":"175.0096","RA_OF_ASC_NODE":"219.1516","MEAN_MOTION_DOT":"0.00032631","RCS_SIZE":null,"CLASSIFICATION_TYPE":"U","DECAY_DATE":null,"OBJECT_TYPE":"PAYLOAD","INCLINATION":"53.2142","TLE_LINE2":"2 53715  53.2142 219.1516 0000803 113.1468 175.0096 15.73168334  1820","GP_ID":"212657203","REF_FRAME":"TEME","SEMIMAJOR_AXIS":"6727.985","APOAPSIS":"350.391","EPOCH":"2022-09-16T00:00:00.999648","ARG_OF_PERICENTER":"113.1468","TLE_LINE1":"1 53715U 22107R   22259.00001157  .00032631  00000-0  23633-3 0  9992","PERIAPSIS":"349.310"},{"RA_OF_ASC_NODE":"219.1507","CLASSIFICATION_TYPE":"U","RCS_SIZE":null,"MEAN_MOTION_DOT":"0.00004243","MEAN_ANOMALY":"186.8376","MEAN_ELEMENT_THEORY":"SGP4","GP_ID":"212657356","TLE_LINE2":"2 53716  53.2145 219.1507 0001267 101.9166 186.8376 15.73224972  1821","OBJECT_TYPE":"PAYLOAD","INCLINATION":"53.2145","DECAY_DATE":null,"EPOCH":"2022-09-16T00:00:00.999648","APOAPSIS":"350.541","SEMIMAJOR_AXIS":"6727.824","REF_FRAME":"TEME","PERIAPSIS":"348.837","TLE_LINE1":"1 53716U 22107S   22259.00001157  .00004243  00000-0  34594-4 0  9990","ARG_OF_PERICENTER":"101.9166","EPHEMERIS_TYPE":"0","COUNTRY_CODE":"US","TIME_SYSTEM":"UTC","BSTAR":"0.00003459400000","REV_AT_EPOCH":"182","PERIOD":"91.532","MEAN_MOTION_DDOT":"0.0000000000000","ECCENTRICITY":"0.00012670","OBJECT_ID":"2022-107S","OBJECT_NAME":"STARLINK-4699","SITE":"AFETR","MEAN_MOTION":"15.73224972","LAUNCH_DATE":"2022-09-05","CENTER_NAME":"EARTH","ELEMENT_SET_NO":"999","FILE":"3574973","NORAD_CAT_ID":"53716"},{"OBJECT_NAME":"STARLINK-4702","OBJECT_ID":"2022-107T","ELEMENT_SET_NO":"999","FILE":"3574973","NORAD_CAT_ID":"53717","SITE":"AFETR","LAUNCH_DATE":"2022-09-05","CENTER_NAME":"EARTH","MEAN_MOTION":"15.90880025","TIME_SYSTEM":"UTC","EPHEMERIS_TYPE":"0","COUNTRY_CODE":"US","REV_AT_EPOCH":"183","PERIOD":"90.516","MEAN_MOTION_DDOT":"0.0000184850000","ECCENTRICITY":"0.00080970","BSTAR":"0.00045139000000","SEMIMAJOR_AXIS":"6677.956","REF_FRAME":"TEME","EPOCH":"2022-09-16T00:00:00.999648","APOAPSIS":"305.228","TLE_LINE1":"1 53717U 22107T   22259.00001157  .00141831  18485-4  45139-3 0  9992","ARG_OF_PERICENTER":"314.7142","PERIAPSIS":"294.414","MEAN_ELEMENT_THEORY":"SGP4","RA_OF_ASC_NODE":"218.6199","RCS_SIZE":null,"MEAN_MOTION_DOT":"0.00141831","CLASSIFICATION_TYPE":"U","MEAN_ANOMALY":"232.2594","OBJECT_TYPE":"PAYLOAD","INCLINATION":"53.2128","DECAY_DATE":null,"GP_ID":"212657354","TLE_LINE2":"2 53717  53.2128 218.6199 0008097 314.7142 232.2594 15.90880025  1835"},{"SEMIMAJOR_AXIS":"6727.801","REF_FRAME":"TEME","EPOCH":"2022-09-16T00:00:00.999648","APOAPSIS":"350.478","TLE_LINE1":"1 53718U 22107U   22259.00001157 -.00077308  00000-0 -55070-3 0  9997","ARG_OF_PERICENTER":"103.8216","PERIAPSIS":"348.854","MEAN_ELEMENT_THEORY":"SGP4","RA_OF_ASC_NODE":"219.1494","CLASSIFICATION_TYPE":"U","RCS_SIZE":null,"MEAN_MOTION_DOT":"-0.00077308","MEAN_ANOMALY":"185.5128","OBJECT_TYPE":"PAYLOAD","INCLINATION":"53.2145","DECAY_DATE":null,"GP_ID":"212657363","TLE_LINE2":"2 53718  53.2145 219.1494 0001207 103.8216 185.5128 15.73233091  1822","OBJECT_NAME":"STARLINK-4695","OBJECT_ID":"2022-107U","ELEMENT_SET_NO":"999","FILE":"3574973","NORAD_CAT_ID":"53718","SITE":"AFETR","LAUNCH_DATE":"2022-09-05","MEAN_MOTION":"15.73233091","CENTER_NAME":"EARTH","TIME_SYSTEM":"UTC","EPHEMERIS_TYPE":"0","COUNTRY_CODE":"US","REV_AT_EPOCH":"182","PERIOD":"91.531","MEAN_MOTION_DDOT":"0.0000000000000","ECCENTRICITY":"0.00012070","BSTAR":"-0.00055070000000"},{"EPHEMERIS_TYPE":"0","COUNTRY_CODE":"US","TIME_SYSTEM":"UTC","BSTAR":"0.00042752000000","PERIOD":"90.619","REV_AT_EPOCH":"182","MEAN_MOTION_DDOT":"0.0000000000000","ECCENTRICITY":"0.00076190","OBJECT_ID":"2022-107V","OBJECT_NAME":"STARLINK-4644","SITE":"AFETR","LAUNCH_DATE":"2022-09-05","MEAN_MOTION":"15.89077619","CENTER_NAME":"EARTH","ELEMENT_SET_NO":"999","FILE":"3574974","NORAD_CAT_ID":"53719","RA_OF_ASC_NODE":"218.6725","RCS_SIZE":null,"CLASSIFICATION_TYPE":"U","MEAN_MOTION_DOT":"0.00126486","MEAN_ANOMALY":"237.5051","MEAN_ELEMENT_THEORY":"SGP4","GP_ID":"212657224","TLE_LINE2":"2 53719  53.2127 218.6725 0007619 283.9378 237.5051 15.89077619  1828","OBJECT_TYPE":"PAYLOAD","INCLINATION":"53.2127","DECAY_DATE":null,"EPOCH":"2022-09-16T00:00:00.999648","APOAPSIS":"309.961","SEMIMAJOR_AXIS":"6683.005","REF_FRAME":"TEME","PERIAPSIS":"299.778","TLE_LINE1":"1 53719U 22107V   22259.00001157  .00126486  00000-0  42752-3 0  9991","ARG_OF_PERICENTER":"283.9378"},{"PERIAPSIS":"348.652","TLE_LINE1":"1 53720U 22107W   22259.00001157 -.00132162  00000-0 -94647-3 0  9993","ARG_OF_PERICENTER":"106.3334","EPOCH":"2022-09-16T00:00:00.999648","APOAPSIS":"350.077","SEMIMAJOR_AXIS":"6727.500","REF_FRAME":"TEME","GP_ID":"212657373","TLE_LINE2":"2 53720  53.2147 219.1533 0001059 106.3334 181.1398 15.73338715  1825","OBJECT_TYPE":"PAYLOAD","INCLINATION":"53.2147","DECAY_DATE":null,"RA_OF_ASC_NODE":"219.1533","CLASSIFICATION_TYPE":"U","RCS_SIZE":null,"MEAN_MOTION_DOT":"-0.00132162","MEAN_ANOMALY":"181.1398","MEAN_ELEMENT_THEORY":"SGP4","SITE":"AFETR","LAUNCH_DATE":"2022-09-05","MEAN_MOTION":"15.73338715","CENTER_NAME":"EARTH","ELEMENT_SET_NO":"999","FILE":"3574974","NORAD_CAT_ID":"53720","OBJECT_ID":"2022-107W","OBJECT_NAME":"STARLINK-4642","BSTAR":"-0.00094647000000","PERIOD":"91.525","REV_AT_EPOCH":"182","MEAN_MOTION_DDOT":"0.0000000000000","ECCENTRICITY":"0.00010590","EPHEMERIS_TYPE":"0","COUNTRY_CODE":"US","TIME_SYSTEM":"UTC"},{"PERIAPSIS":"348.586","TLE_LINE1":"1 53721U 22107X   22259.00001157 -.00141345  00000-0 -10151-2 0  9994","ARG_OF_PERICENTER":"110.0157","EPOCH":"2022-09-16T00:00:00.999648","APOAPSIS":"350.338","SEMIMAJOR_AXIS":"6727.597","REF_FRAME":"TEME","GP_ID":"212657797","TLE_LINE2":"2 53721  53.2147 219.1594 0001302 110.0157 174.5239 15.73304466  1825","INCLINATION":"53.2147","OBJECT_TYPE":"PAYLOAD","DECAY_DATE":null,"RCS_SIZE":null,"MEAN_MOTION_DOT":"-0.00141345","CLASSIFICATION_TYPE":"U","RA_OF_ASC_NODE":"219.1594","MEAN_ANOMALY":"174.5239","MEAN_ELEMENT_THEORY":"SGP4","MEAN_MOTION":"15.73304466","LAUNCH_DATE":"2022-09-05","CENTER_NAME":"EARTH","SITE":"AFETR","ELEMENT_SET_NO":"999","NORAD_CAT_ID":"53721","FILE":"3574996","OBJECT_ID":"2022-107X","OBJECT_NAME":"STARLINK-4707","BSTAR":"-0.00101510000000","MEAN_MOTION_DDOT":"0.0000000000000","PERIOD":"91.527","REV_AT_EPOCH":"182","ECCENTRICITY":"0.00013020","EPHEMERIS_TYPE":"0","COUNTRY_CODE":"US","TIME_SYSTEM":"UTC"},{"MEAN_ANOMALY":"168.1815","RA_OF_ASC_NODE":"219.1572","RCS_SIZE":null,"MEAN_MOTION_DOT":"-0.00080305","CLASSIFICATION_TYPE":"U","MEAN_ELEMENT_THEORY":"SGP4","TLE_LINE2":"2 53722  53.2146 219.1572 0000966 117.5067 168.1815 15.73316110  1826","GP_ID":"212657372","DECAY_DATE":null,"OBJECT_TYPE":"PAYLOAD","INCLINATION":"53.2146","APOAPSIS":"350.079","EPOCH":"2022-09-16T00:00:00.999648","REF_FRAME":"TEME","SEMIMAJOR_AXIS":"6727.564","PERIAPSIS":"348.779","ARG_OF_PERICENTER":"117.5067","TLE_LINE1":"1 53722U 22107Y   22259.00001157 -.00080305  00000-0 -57040-3 0  9992","COUNTRY_CODE":"US","EPHEMERIS_TYPE":"0","TIME_SYSTEM":"UTC","BSTAR":"-0.00057040000000","ECCENTRICITY":"0.00009660","REV_AT_EPOCH":"182","PERIOD":"91.526","MEAN_MOTION_DDOT":"0.0000000000000","OBJECT_ID":"2022-107Y","OBJECT_NAME":"STARLINK-4700","SITE":"AFETR","LAUNCH_DATE":"2022-09-05","CENTER_NAME":"EARTH","MEAN_MOTION":"15.73316110","FILE":"3574974","NORAD_CAT_ID":"53722","ELEMENT_SET_NO":"999"}];
